{
    "links": {
        "self": "http://www.neowsapp.com/rest/v1/neo/3560914?api_key=iIulBulltgU6a56xZRHN4H3l9WmuAYTsLGpBGhQ2"
    },
    "id": "3560914",
    "neo_reference_id": "3560914",
    "name": "(2011 FG41)",
    "designation": "2011 FG41",
    "nasa_jpl_url": "http://ssd.jpl.nasa.gov/sbdb.cgi?sstr=3560914",
    "absolute_magnitude_h": 24.9,
    "estimated_diameter": {
        "kilometers": {
            "estimated_diameter_min": 0.0278326768,
            "estimated_diameter_max": 0.0622357573
        },
        "meters": {
            "estimated_diameter_min": 27.8326768072,
            "estimated_diameter_max": 62.2357573367
        },
        "miles": {
            "estimated_diameter_min": 0.0172944182,
            "estimated_diameter_max": 0.0386714948
        },
        "feet": {
            "estimated_diameter_min": 91.3145593761,
            "estimated_diameter_max": 204.1855621004
        }
    },
    "is_potentially_hazardous_asteroid": false,
    "close_approach_data": [
        {
            "close_approach_date": "2004-05-18",
            "close_approach_date_full": "2004-May-18 23:34",
            "epoch_date_close_approach": 1084923240000,
            "relative_velocity": {
                "kilometers_per_second": "11.2347832344",
                "kilometers_per_hour": "40445.219643858",
                "miles_per_hour": "25131.0866170405"
            },
            "miss_distance": {
                "astronomical": "0.3021899542",
                "lunar": "117.5518921838",
                "kilometers": "45206973.483717554",
                "miles": "28090310.7577640852"
            },
            "orbiting_body": "Earth"
        },
        {
            "close_approach_date": "2011-04-16",
            "close_approach_date_full": "2011-Apr-16 15:28",
            "epoch_date_close_approach": 1302967680000,
            "relative_velocity": {
                "kilometers_per_second": "6.2675827287",
                "kilometers_per_hour": "22563.2978232369",
                "miles_per_hour": "14019.9558057774"
            },
            "miss_distance": {
                "astronomical": "0.0815459176",
                "lunar": "31.7213619464",
                "kilometers": "12199095.580155512",
                "miles": "7580166.4965175856"
            },
            "orbiting_body": "Earth"
        },
        {
            "close_approach_date": "2018-03-26",
            "close_approach_date_full": "2018-Mar-26 17:19",
            "epoch_date_close_approach": 1522084740000,
            "relative_velocity": {
                "kilometers_per_second": "12.0984080616",
                "kilometers_per_hour": "43554.2690216336",
                "miles_per_hour": "27062.9289929145"
            },
            "miss_distance": {
                "astronomical": "0.2866019104",
                "lunar": "111.4881431456",
                "kilometers": "42875035.333770848",
                "miles": "26641311.5823717824"
            },
            "orbiting_body": "Earth"
        }
    ],
    "orbital_data": {
        "orbit_id": "12",
        "orbit_determination_date": "2017-04-06 08:53:55",
        "first_observation_date": "2011-03-31",
        "last_observation_date": "2011-05-01",
        "data_arc_in_days": 31,
        "observations_used": 37,
        "orbit_uncertainty": "7",
        "minimum_orbit_intersection": ".082704",
        "jupiter_tisserand_invariant": "4.031",
        "epoch_osculation": "2459000.5",
        "eccentricity": ".3833283825262201",
        "semi_major_axis": "1.75147839592142",
        "inclination": "8.516938551236485",
        "ascending_node_longitude": "195.7911759707169",
        "orbital_period": "846.6532971793757",
        "perihelion_distance": "1.080087015383244",
        "perihelion_argument": "16.29991408150563",
        "aphelion_distance": "2.422869776459597",
        "perihelion_time": "2459061.779762701233",
        "mean_anomaly": "333.9436264573241",
        "mean_motion": ".42520356466967",
        "equinox": "J2000",
        "orbit_class": {
            "orbit_class_type": "AMO",
            "orbit_class_description": "Near-Earth asteroid orbits similar to that of 1221 Amor",
            "orbit_class_range": "1.017 AU < q (perihelion) < 1.3 AU"
        }
    },
    "is_sentry_object": false
}